{
    "links": {
        "self": "http://www.neowsapp.com/rest/v1/neo/3771011?api_key=iIulBulltgU6a56xZRHN4H3l9WmuAYTsLGpBGhQ2"
    },
    "id": "3771011",
    "neo_reference_id": "3771011",
    "name": "(2017 ET2)",
    "designation": "2017 ET2",
    "nasa_jpl_url": "http://ssd.jpl.nasa.gov/sbdb.cgi?sstr=3771011",
    "absolute_magnitude_h": 25.9,
    "estimated_diameter": {
        "kilometers": {
            "estimated_diameter_min": 0.0175612318,
            "estimated_diameter_max": 0.0392681082
        },
        "meters": {
            "estimated_diameter_min": 17.561231848,
            "estimated_diameter_max": 39.2681081809
        },
        "miles": {
            "estimated_diameter_min": 0.0109120402,
            "estimated_diameter_max": 0.0244000636
        },
        "feet": {
            "estimated_diameter_min": 57.6155918963,
            "estimated_diameter_max": 128.8323800441
        }
    },
    "is_potentially_hazardous_asteroid": false,
    "close_approach_data": [
        {
            "close_approach_date": "2017-02-27",
            "close_approach_date_full": "2017-Feb-27 19:40",
            "epoch_date_close_approach": 1488224400000,
            "relative_velocity": {
                "kilometers_per_second": "10.809011289",
                "kilometers_per_hour": "38912.4406405616",
                "miles_per_hour": "24178.6773524645"
            },
            "miss_distance": {
                "astronomical": "0.0310646765",
                "lunar": "12.0841591585",
                "kilometers": "4647209.436639055",
                "miles": "2887642.042186759"
            },
            "orbiting_body": "Earth"
        }
    ],
    "orbital_data": {
        "orbit_id": "7",
        "orbit_determination_date": "2017-10-27 06:41:05",
        "first_observation_date": "2017-03-05",
        "last_observation_date": "2017-03-25",
        "data_arc_in_days": 20,
        "observations_used": 31,
        "orbit_uncertainty": "7",
        "minimum_orbit_intersection": ".00579918",
        "jupiter_tisserand_invariant": "3.202",
        "epoch_osculation": "2459000.5",
        "eccentricity": ".6156314668516263",
        "semi_major_axis": "2.452468790273712",
        "inclination": "3.010751176217148",
        "ascending_node_longitude": "159.5859954882909",
        "orbital_period": "1402.825529539258",
        "perihelion_distance": ".9426518315096734",
        "perihelion_argument": "324.5343027668475",
        "aphelion_distance": "3.962285749037751",
        "perihelion_time": "2459189.262915846822",
        "mean_anomaly": "311.5587303809799",
        "mean_motion": ".2566249276331876",
        "equinox": "J2000",
        "orbit_class": {
            "orbit_class_type": "APO",
            "orbit_class_description": "Near-Earth asteroid orbits which cross the Earth’s orbit similar to that of 1862 Apollo",
            "orbit_class_range": "a (semi-major axis) > 1.0 AU; q (perihelion) < 1.017 AU"
        }
    },
    "is_sentry_object": false
}